[
    {
        "Altitude(m)": 706993.1902555723,
        "Argument of Periapsis(deg)": 0.004556048474650827,
        "Eccentricity": 0.0,
        "Inclination(deg)": 45.0,
        "Latitude(deg)": 43.74450184113797,
        "Longitude(deg)": -127.46084841329136,
        "Mean Anomaly(deg)": 102.79508665899232,
        "RAAN(deg)": 224.9956992234167,
        "Satellite Name": "Constellation 1 996",
        "Satellite Number": 996,
        "Semi-Major Axis(m)": 7083131.272910544,
        "Time(s)": 76
    },
    {
        "Altitude(m)": 706990.2392205667,
        "Argument of Periapsis(deg)": 0.004615996480896233,
        "Eccentricity": 0.0,
        "Inclination(deg)": 45.0,
        "Latitude(deg)": 43.73129961385053,
        "Longitude(deg)": -127.38311333854777,
        "Mean Anomaly(deg)": 102.85578779924218,
        "RAAN(deg)": 224.99564263425114,
        "Satellite Name": "Constellation 1 996",
        "Satellite Number": 996,
        "Semi-Major Axis(m)": 7083131.272910544,
        "Time(s)": 77
    },
    {
        "Altitude(m)": 706987.2754278507,
        "Argument of Periapsis(deg)": 0.004675944487141638,
        "Eccentricity": 0.0,
        "Inclination(deg)": 45.0,
        "Latitude(deg)": 43.718038801824335,
        "Longitude(deg)": -127.30541426678907,
        "Mean Anomaly(deg)": 102.91648893949214,
        "RAAN(deg)": 224.9955860450856,
        "Satellite Name": "Constellation 1 996",
        "Satellite Number": 996,
        "Semi-Major Axis(m)": 7083131.272910544,
        "Time(s)": 78
    },
    {
        "Altitude(m)": 706984.2988949355,
        "Argument of Periapsis(deg)": 0.004735892493387044,
        "Eccentricity": 0.0,
        "Inclination(deg)": 45.0,
        "Latitude(deg)": 43.70471945749403,
        "Longitude(deg)": -127.22775132460825,
        "Mean Anomaly(deg)": 102.97719007974199,
        "RAAN(deg)": 224.99552945592,
        "Satellite Name": "Constellation 1 996",
        "Satellite Number": 996,
        "Semi-Major Axis(m)": 7083131.272910544,
        "Time(s)": 79
    },
    {
        "Altitude(m)": 706981.3096394133,
        "Argument of Periapsis(deg)": 0.004795840499632449,
        "Eccentricity": 0.0,
        "Inclination(deg)": 45.0,
        "Latitude(deg)": 43.691341633466855,
        "Longitude(deg)": -127.15012463805898,
        "Mean Anomaly(deg)": 103.03789121999192,
        "RAAN(deg)": 224.99547286675443,
        "Satellite Name": "Constellation 1 996",
        "Satellite Number": 996,
        "Semi-Major Axis(m)": 7083131.272910544,
        "Time(s)": 80
    },
    {
        "Altitude(m)": 706978.3076789506,
        "Argument of Periapsis(deg)": 0.004855788505877855,
        "Eccentricity": 0.0,
        "Inclination(deg)": 45.0,
        "Latitude(deg)": 43.677905382521566,
        "Longitude(deg)": -127.07253433265512,
        "Mean Anomaly(deg)": 103.09859236024178,
        "RAAN(deg)": 224.99541627758887,
        "Satellite Name": "Constellation 1 996",
        "Satellite Number": 996,
        "Semi-Major Axis(m)": 7083131.272910544,
        "Time(s)": 81
    },
    {
        "Altitude(m)": 706975.2930312946,
        "Argument of Periapsis(deg)": 0.00491573651212326,
        "Eccentricity": 0.0,
        "Inclination(deg)": 45.0,
        "Latitude(deg)": 43.66441075760774,
        "Longitude(deg)": -126.99498070146572,
        "Mean Anomaly(deg)": 103.15929350049173,
        "RAAN(deg)": 224.9953596884233,
        "Satellite Name": "Constellation 1 996",
        "Satellite Number": 996,
        "Semi-Major Axis(m)": 7083131.272910544,
        "Time(s)": 82
    },
    {
        "Altitude(m)": 706972.2657142614,
        "Argument of Periapsis(deg)": 0.004975684518368666,
        "Eccentricity": 0.0,
        "Inclination(deg)": 45.0,
        "Latitude(deg)": 43.65085781184416,
        "Longitude(deg)": -126.9174635327279,
        "Mean Anomaly(deg)": 103.21999464074162,
        "RAAN(deg)": 224.99530309925774,
        "Satellite Name": "Constellation 1 996",
        "Satellite Number": 996,
        "Semi-Major Axis(m)": 7083131.272910544,
        "Time(s)": 83
    },
    {
        "Altitude(m)": 706969.2257457529,
        "Argument of Periapsis(deg)": 0.005035632524614072,
        "Eccentricity": 0.0,
        "Inclination(deg)": 45.0,
        "Latitude(deg)": 43.63724659851907,
        "Longitude(deg)": -126.83998311842606,
        "Mean Anomaly(deg)": 103.28069578099146,
        "RAAN(deg)": 224.99524651009216,
        "Satellite Name": "Constellation 1 996",
        "Satellite Number": 996,
        "Semi-Major Axis(m)": 7083131.272910544,
        "Time(s)": 84
    },
    {
        "Altitude(m)": 706966.1731437373,
        "Argument of Periapsis(deg)": 0.0050955805308594785,
        "Eccentricity": 0.0,
        "Inclination(deg)": 45.0,
        "Latitude(deg)": 43.623577171088435,
        "Longitude(deg)": -126.76253958190405,
        "Mean Anomaly(deg)": 103.34139692124147,
        "RAAN(deg)": 224.9951899209266,
        "Satellite Name": "Constellation 1 996",
        "Satellite Number": 996,
        "Semi-Major Axis(m)": 7083131.272910544,
        "Time(s)": 85
    },
    {
        "Altitude(m)": 706963.1079262692,
        "Argument of Periapsis(deg)": 0.005155528537104883,
        "Eccentricity": 0.0,
        "Inclination(deg)": 45.0,
        "Latitude(deg)": 43.609849583175276,
        "Longitude(deg)": -126.68513304596142,
        "Mean Anomaly(deg)": 103.4020980614913,
        "RAAN(deg)": 224.99513333176105,
        "Satellite Name": "Constellation 1 996",
        "Satellite Number": 996,
        "Semi-Major Axis(m)": 7083131.272910544,
        "Time(s)": 86
    },
    {
        "Altitude(m)": 706960.03011147,
        "Argument of Periapsis(deg)": 0.0052154765433502885,
        "Eccentricity": 0.0,
        "Inclination(deg)": 45.0,
        "Latitude(deg)": 43.59606388856874,
        "Longitude(deg)": -126.6077636328521,
        "Mean Anomaly(deg)": 103.4627992017412,
        "RAAN(deg)": 224.99507674259544,
        "Satellite Name": "Constellation 1 996",
        "Satellite Number": 996,
        "Semi-Major Axis(m)": 7083131.272910544,
        "Time(s)": 87
    },
    {
        "Altitude(m)": 706956.9397175439,
        "Argument of Periapsis(deg)": 0.005275424549595694,
        "Eccentricity": 0.0,
        "Inclination(deg)": 45.0,
        "Latitude(deg)": 43.58222014122327,
        "Longitude(deg)": -126.53043146428382,
        "Mean Anomaly(deg)": 103.5235003419911,
        "RAAN(deg)": 224.9950201534299,
        "Satellite Name": "Constellation 1 996",
        "Satellite Number": 996,
        "Semi-Major Axis(m)": 7083131.272910544,
        "Time(s)": 88
    },
    {
        "Altitude(m)": 706953.8367627647,
        "Argument of Periapsis(deg)": 0.0053353725558411,
        "Eccentricity": 0.0,
        "Inclination(deg)": 45.0,
        "Latitude(deg)": 43.56831839525778,
        "Longitude(deg)": -126.45313682951436,
        "Mean Anomaly(deg)": 103.58420148224103,
        "RAAN(deg)": 224.99496356426434,
        "Satellite Name": "Constellation 1 996",
        "Satellite Number": 996,
        "Semi-Major Axis(m)": 7083131.272910544,
        "Time(s)": 89
    },
    {
        "Altitude(m)": 706950.721265491,
        "Argument of Periapsis(deg)": 0.005395320562086505,
        "Eccentricity": 0.0,
        "Inclination(deg)": 45.0,
        "Latitude(deg)": 43.554358704954,
        "Longitude(deg)": -126.37587951296304,
        "Mean Anomaly(deg)": 103.64490262249089,
        "RAAN(deg)": 224.99490697509876,
        "Satellite Name": "Constellation 1 996",
        "Satellite Number": 996,
        "Semi-Major Axis(m)": 7083131.272910544,
        "Time(s)": 90
    },
    {
        "Altitude(m)": 706947.5932441474,
        "Argument of Periapsis(deg)": 0.00545526856833191,
        "Eccentricity": 0.0,
        "Inclination(deg)": 45.0,
        "Latitude(deg)": 43.54034112475677,
        "Longitude(deg)": -126.29865980279114,
        "Mean Anomaly(deg)": 103.70560376274078,
        "RAAN(deg)": 224.9948503859332,
        "Satellite Name": "Constellation 1 996",
        "Satellite Number": 996,
        "Semi-Major Axis(m)": 7083131.272910544,
        "Time(s)": 91
    },
    {
        "Altitude(m)": 706944.4527172442,
        "Argument of Periapsis(deg)": 0.005515216574577317,
        "Eccentricity": 0.0,
        "Inclination(deg)": 45.0,
        "Latitude(deg)": 43.52626570927235,
        "Longitude(deg)": -126.22147781851382,
        "Mean Anomaly(deg)": 103.76630490299075,
        "RAAN(deg)": 224.9947937967676,
        "Satellite Name": "Constellation 1 996",
        "Satellite Number": 996,
        "Semi-Major Axis(m)": 7083131.272910544,
        "Time(s)": 92
    },
    {
        "Altitude(m)": 706941.2997033533,
        "Argument of Periapsis(deg)": 0.005575164580822722,
        "Eccentricity": 0.0,
        "Inclination(deg)": 45.0,
        "Latitude(deg)": 43.51213251326769,
        "Longitude(deg)": -126.14433367909672,
        "Mean Anomaly(deg)": 103.82700604324063,
        "RAAN(deg)": 224.99473720760204,
        "Satellite Name": "Constellation 1 996",
        "Satellite Number": 996,
        "Semi-Major Axis(m)": 7083131.272910544,
        "Time(s)": 93
    },
    {
        "Altitude(m)": 706938.1342211365,
        "Argument of Periapsis(deg)": 0.005635112587068129,
        "Eccentricity": 0.0,
        "Inclination(deg)": 45.0,
        "Latitude(deg)": 43.4979415916695,
        "Longitude(deg)": -126.06722750295405,
        "Mean Anomaly(deg)": 103.88770718349052,
        "RAAN(deg)": 224.9946806184365,
        "Satellite Name": "Constellation 1 996",
        "Satellite Number": 996,
        "Semi-Major Axis(m)": 7083131.272910544,
        "Time(s)": 94
    }
]